OBJECT_NAME,OBJECT_ID,EPOCH,MEAN_MOTION,ECCENTRICITY,INCLINATION,RA_OF_ASC_NODE,ARG_OF_PERICENTER,MEAN_ANOMALY,EPHEMERIS_TYPE,CLASSIFICATION_TYPE,NORAD_CAT_ID,ELEMENT_SET_NO,REV_AT_EPOCH,BSTAR,MEAN_MOTION_DOT,MEAN_MOTION_DDOT
GONETS-M 19,2020-068C,2026-06-26T23:15:29.179008,12.42892642,.00139234,82.4970,340.9826,29.5884,330.5981,0,U,46488,999,26046,.53208459E-3,.84E-6,0
DEKART,2020-068H,2026-06-26T23:16:04.317024,15.37560958,.00072862,97.8737,187.9409,242.2551,117.7954,0,U,46493,999,31727,.3443042E-3,.12615E-3,0
NORBI,2020-068J,2026-06-26T23:29:00.843072,15.48858586,.00060789,97.8624,194.8079,204.6752,155.4208,0,U,46494,999,31772,.45353815E-3,.24376E-3,0
SALSAT,2020-068K,2026-06-26T22:57:28.471392,15.29932421,.00078227,97.8848,181.6168,266.2984,93.7361,0,U,46495,999,31685,.2860148E-3,.8212E-4,0
ICEYE-X6,2020-068M,2026-06-26T23:13:35.297760,15.04575755,.00089861,98.0975,172.1073,65.2063,295.0096,0,U,46497,999,31470,.21173871E-3,.2905E-4,0
NETSAT-4,2020-068U,2026-06-26T23:24:57.089664,15.44180326,.00031682,97.8599,187.0041,284.7568,75.3328,0,U,46504,999,31728,.41257236E-3,.18846E-3,0
NETSAT-3,2020-068V,2026-06-26T06:37:30.618912,15.42978668,.0003131,97.8652,184.4532,318.1999,41.9007,0,U,46505,999,31708,.46733E-3,.20517E-3,0
NETSAT-1,2020-068W,2026-06-26T23:31:55.708032,15.34858405,.0003797,97.8742,179.4288,359.9684,0.1557,0,U,46506,999,31680,.36068261E-3,.12112E-3,0
NETSAT-2,2020-068X,2026-06-26T22:29:35.922912,15.46405479,.00019663,97.8611,186.8936,349.6219,10.4988,0,U,46507,999,31724,.4991089E-3,.24635E-3,0
TIANQI-6,2020-076D,2026-06-26T21:00:31.039200,15.07244925,.00110187,35.0003,349.0031,257.0027,102.9452,0,U,46810,999,31004,.25697203E-3,.3932E-4,0
KSM1-C,2020-081B,2026-06-26T23:15:29.213568,15.26897442,.00035495,36.8967,358.5454,300.9039,59.1361,0,U,46906,999,31066,.39342987E-3,.10558E-3,0
KSM1-D,2020-081C,2026-06-26T22:02:25.890144,15.24857088,.0004575,36.8981,8.0581,324.8658,35.1788,0,U,46907,999,31058,.38472911E-3,.9701E-4,0
KSM1-A,2020-081H,2026-06-26T21:53:10.496256,15.26106628,.000316,36.8981,1.3659,7.5803,352.4994,0,U,46912,999,31066,.3694201E-3,.967E-4,0
R2,2020-081J,2026-06-26T13:03:22.674816,15.25555266,.0008023,36.8984,3.6652,354.2328,5.8327,0,U,46913,999,31341,.31361E-3,.8061E-4,0
KSM1-B,2020-081K,2026-06-26T22:09:21.931200,15.24644339,.00056892,36.9037,8.6568,349.3683,10.6945,0,U,46914,999,31367,.35895444E-3,.8987E-4,0
GONETS-M 20,2020-091A,2026-06-26T23:42:12.319776,12.42894133,.00216175,82.5047,296.3436,156.9174,203.2882,0,U,47227,999,25229,.13873013E-3,.29E-6,0
GONETS-M 21,2020-091B,2026-06-26T23:04:38.085888,12.42887266,.00152256,82.4971,295.0609,169.7274,190.4120,0,U,47228,999,25228,.28406399E-3,.49E-6,0
GONETS-M 22,2020-091C,2026-06-26T22:25:50.328192,12.42893077,.002256,82.5029,295.9807,152.5452,207.6825,0,U,47229,999,25223,-.38371024E-3,-.43E-6,0
CUBEL,2021-006AM,2026-06-26T13:48:17.110656,15.41523399,.0007917,97.2331,228.0714,134.0638,226.1262,0,U,47448,999,30120,.38786E-3,.1622E-3,0
ARKTIKA-M 1,2021-016A,2026-06-24T11:15:18.372960,2.00620016,.7291,63.2470,56.5720,269.9787,14.5750,0,U,47719,999,3893,0,-.298E-5,0
STARLINK-2342,2021-021Z,2026-06-26T23:08:27.733632,15.84381906,.00029191,53.1537,98.9484,198.0047,162.0875,0,U,47883,999,29345,.87646256E-3,.208176E-2,0
GRUS-1B,2021-022C,2026-06-26T23:46:41.460960,14.98739362,.00147142,97.5377,60.8667,289.0026,70.9603,0,U,47934,999,28736,.89591773E-4,.1023E-4,0
UNISAT-7,2021-022P,2026-06-26T16:58:48.350784,15.40716374,.00103785,97.3888,82.7320,50.4024,309.8137,0,U,47945,999,29132,.34667425E-3,.1411E-3,0
GLOBAL-9,2021-023G,2026-06-26T17:55:37.236864,15.46930428,.00035855,44.9788,196.7807,12.9935,347.1047,0,U,47971,999,29642,.3379558E-3,.17083E-3,0
AII-BRAVO,2021-034C,2026-06-26T20:54:24.100128,15.03549744,.00044552,97.5626,232.5621,212.1676,147.9278,0,U,48270,999,28107,.30616183E-3,.4121E-4,0
TYVAK-182A,2021-034D,2026-06-26T21:31:16.135392,15.06253108,.00042932,97.5730,236.6455,304.3531,55.7289,0,U,48271,999,28129,.37589911E-3,.5457E-4,0
CSS (TIANHE),2021-035A,2026-06-26T21:26:46.575168,15.61230203,.00080379,41.4690,262.9148,159.7037,200.4122,0,U,48274,999,29468,.26301828E-3,.22691E-3,0
TYVAK-0130,2021-041BF,2026-06-26T20:36:50.147136,15.27696696,.00096295,52.9959,341.1659,194.0432,166.0299,0,U,48606,999,28186,.34162841E-3,.9039E-4,0
