GONETS-M 19             
1 46488U 20068C   26177.96908772  .00000084  00000+0  53208-3 0  9999
2 46488  82.4970 340.9826 0013923  29.5884 330.5981 12.42892642260465
DEKART                  
1 46493U 20068H   26177.96949441  .00012615  00000+0  34430-3 0  9992
2 46493  97.8737 187.9409 0007286 242.2551 117.7954 15.37560958317274
NORBI                   
1 46494U 20068J   26177.97848198  .00024376  00000+0  45354-3 0  9995
2 46494  97.8624 194.8079 0006078 204.6752 155.4208 15.48858586317723
SALSAT                  
1 46495U 20068K   26177.95657953  .00008212  00000+0  28601-3 0  9998
2 46495  97.8848 181.6168 0007822 266.2984  93.7361 15.29932421316851
ICEYE-X6                
1 46497U 20068M   26177.96776965  .00002905  00000+0  21174-3 0  9997
2 46497  98.0975 172.1073 0008986  65.2063 295.0096 15.04575755314704
NETSAT-4                
1 46504U 20068U   26177.97566076  .00018846  00000+0  41257-3 0  9992
2 46504  97.8599 187.0041 0003168 284.7568  75.3328 15.44180326317280
NETSAT-3                
1 46505U 20068V   26177.27604883  .00020517  00000+0  46733-3 0  9997
2 46505  97.8652 184.4532 0003131 318.1999  41.9007 15.42978668317080
NETSAT-1                
1 46506U 20068W   26177.98050588  .00012112  00000+0  36068-3 0  9995
2 46506  97.8742 179.4288 0003797 359.9684   0.1557 15.34858405316808
NETSAT-2                
1 46507U 20068X   26177.93722133  .00024635  00000+0  49911-3 0  9997
2 46507  97.8611 186.8936 0001966 349.6219  10.4988 15.46405479317245
TIANQI-6                
1 46810U 20076D   26177.87535925  .00003932  00000+0  25697-3 0  9999
2 46810  35.0003 349.0031 0011018 257.0027 102.9452 15.07244925310046
KSM1-C                  
1 46906U 20081B   26177.96908812  .00010558  00000+0  39343-3 0  9995
2 46906  36.8967 358.5454 0003549 300.9039  59.1361 15.26897442310664
KSM1-D                  
1 46907U 20081C   26177.91835521  .00009701  00000+0  38473-3 0  9998
2 46907  36.8981   8.0581 0004575 324.8658  35.1788 15.24857088310589
KSM1-A                  
1 46912U 20081H   26177.91192704  .00009670  00000+0  36942-3 0  9997
2 46912  36.8981   1.3659 0003160   7.5803 352.4994 15.26106628310665
R2                      
1 46913U 20081J   26177.54401244  .00008061  00000+0  31361-3 0  9992
2 46913  36.8984   3.6652 0008023 354.2328   5.8327 15.25555266313414
KSM1-B                  
1 46914U 20081K   26177.92317050  .00008987  00000+0  35895-3 0  9999
2 46914  36.9037   8.6568 0005689 349.3683  10.6945 15.24644339313677
GONETS-M 20             
1 47227U 20091A   26177.98764259  .00000029  00000+0  13873-3 0  9992
2 47227  82.5047 296.3436 0021617 156.9174 203.2882 12.42894133252295
GONETS-M 21             
1 47228U 20091B   26177.96155192  .00000049  00000+0  28406-3 0  9991
2 47228  82.4971 295.0609 0015225 169.7274 190.4120 12.42887266252280
GONETS-M 22             
1 47229U 20091C   26177.93461028 -.00000043  00000+0 -38371-3 0  9995
2 47229  82.5029 295.9807 0022560 152.5452 207.6825 12.42893077252238
CUBEL                   
1 47448U 21006AM  26177.57519804  .00016220  00000+0  38786-3 0  9993
2 47448  97.2331 228.0714 0007917 134.0638 226.1262 15.41523399301206
ARKTIKA-M 1             
1 47719U 21016A   26175.46896265 -.00000298  00000+0  00000+0 0  9993
2 47719  63.2470  56.5720 7291000 269.9787  14.5750  2.00620016 38936
STARLINK-2342           
1 47883U 21021Z   26177.96420988  .00208176  00000+0  87646-3 0  9992
2 47883  53.1537  98.9484 0002919 198.0047 162.0875 15.84381906293455
GRUS-1B                 
1 47934U 21022C   26177.99075765  .00001023  00000+0  89592-4 0  9997
2 47934  97.5377  60.8667 0014714 289.0026  70.9603 14.98739362287367
UNISAT-7                
1 47945U 21022P   26177.70750406  .00014110  00000+0  34667-3 0  9993
2 47945  97.3888  82.7320 0010378  50.4024 309.8137 15.40716374291326
GLOBAL-9                
1 47971U 21023G   26177.74695876  .00017083  00000+0  33796-3 0  9990
2 47971  44.9788 196.7807 0003585  12.9935 347.1047 15.46930428296429
AII-BRAVO               
1 48270U 21034C   26177.87111227  .00004121  00000+0  30616-3 0  9999
2 48270  97.5626 232.5621 0004455 212.1676 147.9278 15.03549744281070
TYVAK-182A              
1 48271U 21034D   26177.89671453  .00005457  00000+0  37590-3 0  9995
2 48271  97.5730 236.6455 0004293 304.3531  55.7289 15.06253108281292
CSS (TIANHE)            
1 48274U 21035A   26177.89359462  .00022691  00000+0  26302-3 0  9990
2 48274  41.4690 262.9148 0008037 159.7037 200.4122 15.61230203294686
TYVAK-0130              
1 48606U 21041BF  26177.85891374  .00009039  00000+0  34163-3 0  9990
2 48606  52.9959 341.1659 0009629 194.0432 166.0299 15.27696696281868
